OBJECT_NAME,OBJECT_ID,EPOCH,MEAN_MOTION,ECCENTRICITY,INCLINATION,RA_OF_ASC_NODE,ARG_OF_PERICENTER,MEAN_ANOMALY,EPHEMERIS_TYPE,CLASSIFICATION_TYPE,NORAD_CAT_ID,ELEMENT_SET_NO,REV_AT_EPOCH,BSTAR,MEAN_MOTION_DOT,MEAN_MOTION_DDOT
STARLINK-34254,2025-111P,2026-06-11T13:30:15.223680,15.27592808,.00010185,43.0019,267.4188,121.6466,238.4485,0,U,64136,999,5982,.66100074E-3,.17979E-3,0
STARLINK-34230,2025-111Q,2026-06-11T14:00:01.999872,15.84230282,.00253026,42.9831,233.1522,40.6893,70.3432,0,U,64137,999,596,.79030283E-3,.192887E-2,0
STARLINK-34129,2025-111R,2026-06-11T14:27:37.016928,15.27595641,.00009124,43.0016,267.7173,270.6497,89.4250,0,U,64138,999,5987,.69781663E-3,.18999E-3,0
STARLINK-34212,2025-111S,2026-06-10T00:05:17.945952,15.27598070,.00019218,42.9999,276.3541,272.8923,87.1709,0,U,64139,999,5958,.61674858E-3,.16758E-3,0
STARLINK-34149,2025-111T,2026-06-10T23:52:26.714496,15.27605489,.00023628,43.0048,270.8914,282.2205,77.8382,0,U,64140,999,5973,.80226811E-3,.21898E-3,0
STARLINK-34054,2025-111U,2026-06-10T23:48:44.985312,15.27582135,.00027337,42.9958,270.8689,283.9029,76.1519,0,U,64141,999,5973,.75015453E-3,.2044E-3,0
STARLINK-34195,2025-111V,2026-06-11T13:39:30.531168,15.27586523,.00004901,42.9973,267.4605,174.5921,185.4936,0,U,64142,999,5982,.72977574E-3,.19878E-3,0
STARLINK-34133,2025-111W,2026-06-11T13:33:57.205152,15.27593690,.0001519,43.0003,267.4332,112.1462,247.9552,0,U,64143,999,5982,.66734427E-3,.18155E-3,0
STARLINK-34181,2025-111X,2026-06-11T14:05:23.560800,15.27598676,.00011458,43.0116,267.5979,254.0018,106.0708,0,U,64144,999,5982,.40261506E-3,.10839E-3,0
STARLINK-34186,2025-111Y,2026-06-11T00:10:57.073728,15.27593282,.0001869,43.0068,270.9945,273.0270,87.0368,0,U,64145,999,5973,.6868538E-3,.18694E-3,0
STARLINK-34314,2025-112A,2026-06-11T13:47:19.765248,15.05662864,.00012841,97.3734,213.2262,135.9968,224.1361,0,U,64146,999,5743,.32905171E-3,.4695E-4,0
STARLINK-33926,2025-112B,2026-06-11T14:47:08.861856,15.05660920,.00008153,97.3751,213.3258,142.6131,217.5153,0,U,64147,999,5744,.30458494E-3,.4341E-4,0
STARLINK-34213,2025-112C,2026-06-11T13:59:17.928096,15.05672740,.00018724,97.3741,213.2152,87.8257,272.3185,0,U,64148,999,5743,.44623563E-3,.6391E-4,0
STARLINK-33924,2025-112D,2026-06-11T14:11:14.287776,15.05662438,.00023275,97.3740,213.2088,109.1617,250.9862,0,U,64149,999,5743,-.72080348E-4,-.1098E-4,0
STARLINK-34209,2025-112E,2026-06-11T14:35:12.384672,15.05665818,.00024052,97.3739,213.3377,156.7177,203.4160,0,U,64150,999,5744,.40940793E-3,.5857E-4,0
STARLINK-34338,2025-112F,2026-06-11T14:23:15.034848,15.05670368,.00025579,97.3728,213.3490,141.5401,218.6009,0,U,64151,999,5744,.41453798E-3,.5932E-4,0
STARLINK-34348,2025-112G,2026-06-11T13:35:21.277536,15.05658050,.00014165,97.3736,213.2396,117.0018,243.1355,0,U,64152,999,5743,.84220668E-4,.1158E-4,0
STARLINK-34345,2025-112H,2026-06-11T14:59:06.746496,15.05658564,.00013968,97.3746,213.3163,88.4069,271.7319,0,U,64153,999,5744,.16092684E-3,.2266E-4,0
STARLINK-33945,2025-112J,2026-06-11T14:47:59.859456,15.05660270,.00022889,97.3732,221.8101,105.1241,255.0239,0,U,64154,999,5799,.27987796E-3,.3984E-4,0
STARLINK-34346,2025-112K,2026-06-11T14:39:10.833120,15.05661159,.00020112,97.3725,213.3401,115.2007,244.9429,0,U,64155,999,5744,.3286166E-3,.4688E-4,0
STARLINK-34277,2025-112L,2026-06-11T13:51:19.080288,15.05660923,.00011036,97.3729,213.2326,121.0973,239.0363,0,U,64156,999,5743,.27483244E-3,.3911E-4,0
STARLINK-34343,2025-112M,2026-06-11T02:23:42.294912,15.04267159,.00142579,97.6095,213.3985,292.3005,67.6709,0,U,64157,999,5734,.11354161E-2,.15797E-3,0
STARLINK-34166,2025-112N,2026-06-11T14:15:15.561504,15.05660137,.00011042,97.3740,213.2088,111.0305,249.1040,0,U,64158,999,5743,.73641141E-3,.10586E-3,0
STARLINK-34344,2025-112P,2026-06-11T14:03:16.749792,15.05671436,.00015245,97.3736,213.2206,122.9702,237.1672,0,U,64159,999,5743,.20743726E-3,.2938E-4,0
STARLINK-34339,2025-112Q,2026-06-11T13:39:21.437568,15.05662056,.00010132,97.3729,213.2432,126.5877,233.5444,0,U,64160,999,5743,.35870549E-3,.5123E-4,0
STARLINK-34341,2025-112R,2026-06-11T14:51:08.287488,15.05661267,.00014386,97.3742,213.3314,108.4470,251.6914,0,U,64161,999,5744,.31195176E-3,.4448E-4,0
STARLINK-34317,2025-112S,2026-06-11T14:27:12.984768,15.05657813,.00018017,97.3733,213.3519,93.0099,267.1335,0,U,64162,999,5744,.15481595E-3,.2177E-4,0
STARLINK-34340,2025-112T,2026-06-11T09:08:12.388416,15.05654783,.00011708,97.3730,213.0379,93.7907,266.3454,0,U,64163,999,5740,.72724638E-4,.992E-5,0
STARLINK-34263,2025-112U,2026-06-11T13:43:20.801856,15.05662878,.00018846,97.3741,213.2417,132.3693,227.7694,0,U,64164,999,5743,.38600391E-3,.5518E-4,0
STARLINK-33793,2025-112V,2026-06-11T13:31:22.978560,15.05668220,.00015973,97.3739,213.2527,111.2927,248.8471,0,U,64165,999,5743,.54499946E-3,.7818E-4,0
