STARLINK-34254          
1 64136U 25111P   26162.56267620  .00017979  00000+0  66100-3 0  9999
2 64136  43.0019 267.4188 0001018 121.6466 238.4485 15.27592808 59826
STARLINK-34230          
1 64137U 25111Q   26162.58335648  .00192887  00000+0  79030-3 0  9996
2 64137  42.9831 233.1522 0025302  40.6893  70.3432 15.84230282  5964
STARLINK-34129          
1 64138U 25111R   26162.60251177  .00018999  00000+0  69782-3 0  9998
2 64138  43.0016 267.7173 0000912 270.6497  89.4250 15.27595641 59870
STARLINK-34212          
1 64139U 25111S   26161.00367993  .00016758  00000+0  61675-3 0  9990
2 64139  42.9999 276.3541 0001921 272.8923  87.1709 15.27598070 59584
STARLINK-34149          
1 64140U 25111T   26161.99475364  .00021898  00000+0  80227-3 0  9997
2 64140  43.0048 270.8914 0002362 282.2205  77.8382 15.27605489 59737
STARLINK-34054          
1 64141U 25111U   26161.99218733  .00020440  00000+0  75015-3 0  9994
2 64141  42.9958 270.8689 0002733 283.9029  76.1519 15.27582135 59735
STARLINK-34195          
1 64142U 25111V   26162.56910337  .00019878  00000+0  72978-3 0  9996
2 64142  42.9973 267.4605 0000490 174.5921 185.4936 15.27586523 59829
STARLINK-34133          
1 64143U 25111W   26162.56524543  .00018155  00000+0  66734-3 0  9997
2 64143  43.0003 267.4332 0001519 112.1462 247.9552 15.27593690 59825
STARLINK-34181          
1 64144U 25111X   26162.58707825  .00010839  00000+0  40262-3 0  9995
2 64144  43.0116 267.5979 0001145 254.0018 106.0708 15.27598676 59824
STARLINK-34186          
1 64145U 25111Y   26162.00760502  .00018694  00000+0  68685-3 0  9990
2 64145  43.0068 270.9945 0001869 273.0270  87.0368 15.27593282 59734
STARLINK-34314          
1 64146U 25112A   26162.57453432  .00004695  00000+0  32905-3 0  9997
2 64146  97.3734 213.2262 0001284 135.9968 224.1361 15.05662864 57431
STARLINK-33926          
1 64147U 25112B   26162.61607479  .00004341  00000+0  30458-3 0  9994
2 64147  97.3751 213.3258 0000815 142.6131 217.5153 15.05660920 57440
STARLINK-34213          
1 64148U 25112C   26162.58284639  .00006391  00000+0  44624-3 0  9997
2 64148  97.3741 213.2152 0001872  87.8257 272.3185 15.05672740 57431
STARLINK-33924          
1 64149U 25112D   26162.59113759 -.00001098  00000+0 -72080-4 0  9992
2 64149  97.3740 213.2088 0002327 109.1617 250.9862 15.05662438 57430
STARLINK-34209          
1 64150U 25112E   26162.60778223  .00005857  00000+0  40941-3 0  9994
2 64150  97.3739 213.3377 0002405 156.7177 203.4160 15.05665818 57448
STARLINK-34338          
1 64151U 25112F   26162.59947957  .00005932  00000+0  41454-3 0  9999
2 64151  97.3728 213.3490 0002557 141.5401 218.6009 15.05670368 57449
STARLINK-34348          
1 64152U 25112G   26162.56621849  .00001158  00000+0  84221-4 0  9992
2 64152  97.3736 213.2396 0001416 117.0018 243.1355 15.05658050 57438
STARLINK-34345          
1 64153U 25112H   26162.62438364  .00002266  00000+0  16093-3 0  9990
2 64153  97.3746 213.3163 0001396  88.4069 271.7319 15.05658564 57445
STARLINK-33945          
1 64154U 25112J   26162.61666504  .00003984  00000+0  27988-3 0  9992
2 64154  97.3732 221.8101 0002288 105.1241 255.0239 15.05660270 57990
STARLINK-34346          
1 64155U 25112K   26162.61054205  .00004688  00000+0  32862-3 0  9991
2 64155  97.3725 213.3401 0002011 115.2007 244.9429 15.05661159 57443
STARLINK-34277          
1 64156U 25112L   26162.57730417  .00003911  00000+0  27483-3 0  9994
2 64156  97.3729 213.2326 0001103 121.0973 239.0363 15.05660923 57430
STARLINK-34343          
1 64157U 25112M   26162.09979508  .00015797  00000+0  11354-2 0  9992
2 64157  97.6095 213.3985 0014257 292.3005  67.6709 15.04267159 57346
STARLINK-34166          
1 64158U 25112N   26162.59393011  .00010586  00000+0  73641-3 0  9996
2 64158  97.3740 213.2088 0001104 111.0305 249.1040 15.05660137 57430
STARLINK-34344          
1 64159U 25112P   26162.58561053  .00002938  00000+0  20744-3 0  9997
2 64159  97.3736 213.2206 0001524 122.9702 237.1672 15.05671436 57438
STARLINK-34339          
1 64160U 25112Q   26162.56899812  .00005123  00000+0  35871-3 0  9990
2 64160  97.3729 213.2432 0001013 126.5877 233.5444 15.05662056 57434
STARLINK-34341          
1 64161U 25112R   26162.61884592  .00004448  00000+0  31195-3 0  9990
2 64161  97.3742 213.3314 0001438 108.4470 251.6914 15.05661267 57446
STARLINK-34317          
1 64162U 25112S   26162.60223362  .00002177  00000+0  15482-3 0  9990
2 64162  97.3733 213.3519 0001801  93.0099 267.1335 15.05657813 57445
STARLINK-34340          
1 64163U 25112T   26162.38069894  .00000992  00000+0  72725-4 0  9991
2 64163  97.3730 213.0379 0001170  93.7907 266.3454 15.05654783 57400
STARLINK-34263          
1 64164U 25112U   26162.57176854  .00005518  00000+0  38600-3 0  9990
2 64164  97.3741 213.2417 0001884 132.3693 227.7694 15.05662878 57436
STARLINK-33793          
1 64165U 25112V   26162.56346040  .00007818  00000+0  54500-3 0  9998
2 64165  97.3739 213.2527 0001597 111.2927 248.8471 15.05668220 57437
